QIANFAN-60              
1 62790U 25016F   25308.26654890  .00000050  00000+0  57945-4 0  9994
2 62790  88.9728 107.0557 0017488  94.8353 265.4796 13.50973393 42034
QIANFAN-61              
1 62791U 25016G   25308.22521315  .00000061  00000+0  75878-4 0  9993
2 62791  88.9795 107.1966 0016429  94.3881 265.9148 13.50976834 42049
QIANFAN-62              
1 62792U 25016H   25308.22947863  .00000051  00000+0  59727-4 0  9998
2 62792  88.9742 107.0854 0017806  94.7012 265.6173 13.50980436 42034
QIANFAN-63              
1 62793U 25016J   25308.25409474  .00000053  00000+0  62966-4 0  9994
2 62793  88.9748 107.0319 0017859  99.5061 260.8109 13.50973561 42073
QIANFAN-64              
1 62794U 25016K   25308.22113807  .00000053  00000+0  62984-4 0  9994
2 62794  88.9735 107.0145 0015797  93.2143 267.0816 13.50975352 42061
QIANFAN-65              
1 62795U 25016L   25308.21706206  .00000052  00000+0  61234-4 0  9991
2 62795  88.9731 107.0423 0015629  94.8073 265.4863 13.50974322 42048
QIANFAN-66              
1 62796U 25016M   25308.24590642  .00000054  00000+0  64184-4 0  9999
2 62796  88.9751 107.0020 0016732  90.7372 269.5697 13.50978372 42091
QIANFAN-67              
1 62797U 25016N   25308.25000989  .00000052  00000+0  61078-4 0  9998
2 62797  88.9741 107.0309 0016719  96.9415 263.3639 13.50971172 42068
QIANFAN-68              
1 62798U 25016P   25308.24177222  .00000057  00000+0  68640-4 0  9990
2 62798  88.9745 107.0755 0016766  95.3661 264.9404 13.50973515 42044
QIANFAN-69              
1 62799U 25016Q   25308.25830460  .00000058  00000+0  71570-4 0  9999
2 62799  88.9723 106.9515 0017528  96.2895 264.0253 13.50970861 42087
QIANFAN-70              
1 62800U 25016R   25308.27458211  .00000060  00000+0  74606-4 0  9990
2 62800  88.9744 107.0802 0017098  87.5227 272.7882 13.50973804 42048
QIANFAN-71              
1 62801U 25016S   25308.27055458  .00000041  00000+0  44966-4 0  9992
2 62801  88.9738 107.0624 0017442  99.4329 260.8795 13.50974589 42044
QIANFAN-72              
1 62802U 25016T   25308.21296228  .00000063  00000+0  78931-4 0  9992
2 62802  88.9729 107.0855 0020675 106.2787 254.0641 13.50974376 42025
QIANFAN-73              
1 63159U 25046A   25308.23980945  .00000046  00000+0  53445-4 0  9993
2 63159  88.9761 324.0120 0013430 230.4603 129.5362 13.50972479 42210
QIANFAN-74              
1 63160U 25046B   25308.29738037  .00000060  00000+0  74762-4 0  9995
2 63160  88.9762 323.8945 0002074  92.8438 267.2951 13.50974350 42284
QIANFAN-75              
1 63161U 25046C   25308.21078074  .00000120  00000+0  16725-3 0  9997
2 63161  88.9763 324.1366 0014496 234.2821 125.6983 13.50984522 42145
QIANFAN-76              
1 63162U 25046D   25308.28095435 -.00000105  00000+0 -18088-3 0  9994
2 63162  88.9760 324.1100 0012101 234.1096 125.8932 13.50969880 42161
QIANFAN-77              
1 63163U 25046E   25308.26863932  .00000184  00000+0  12445-3 0  9994
2 63163  88.9761 322.4341 0014220 192.7036 167.3785 13.96079684 43081
QIANFAN-78              
1 63164U 25046F   25308.24803274  .00000017  00000+0  79853-5 0  9999
2 63164  88.9762 323.9779 0013384 237.0453 122.9412 13.50974188 42233
QIANFAN-79              
1 63165U 25046G   25308.27672136  .00000043  00000+0  48737-4 0  9999
2 63165  88.9766 324.0810 0013114 234.8762 125.1161 13.50974127 42188
QIANFAN-80              
1 63166U 25046H   25308.29327387  .00000104  00000+0  14223-3 0  9997
2 63166  88.9763 323.7871 0012004 239.4764 120.5202 13.50976249 42349
QIANFAN-81              
1 63167U 25046J   25308.27223631  .00000124  00000+0  17370-3 0  9991
2 63167  88.9763 323.8575 0013255 226.8101 133.1944 13.50991944 42292
QIANFAN-82              
1 63168U 25046K   25308.30565578  .00000095  00000+0  12876-3 0  9998
2 63168  88.9763 323.8977 0011234 234.8392 125.1707 13.50973095 42289
QIANFAN-83              
1 63169U 25046L   25308.27549605  .00000085  00000+0  94570-4 0  9999
2 63169  88.9763 323.7527 0012767 221.1591 138.8604 13.61967148 42362
QIANFAN-84              
1 63170U 25046M   25308.33377175 -.00000030  00000+0 -65451-4 0  9997
2 63170  88.9760 324.0276 0014313 231.9704 128.0156 13.50986966 42214
QIANFAN-85              
1 63171U 25046N   25308.25623619  .00000123  00000+0  17154-3 0  9993
2 63171  88.9762 323.9076 0011601 233.8939 126.1139 13.50977006 42272
QIANFAN-86              
1 63172U 25046P   25308.26452225  .00000120  00000+0  16764-3 0  9991
2 63172  88.9764 323.7679 0009407 237.7592 122.2648 13.50974353 42354
QIANFAN-87              
1 63173U 25046Q   25308.23572371  .00000041  00000+0  45337-4 0  9995
2 63173  88.9761 323.8841 0010149 232.5648 127.4580 13.50969807 42286
QIANFAN-88              
1 63174U 25046R   25308.25218955  .00000098  00000+0  13263-3 0  9997
2 63174  88.9763 323.8359 0010407 241.9337 118.0763 13.50972340 42318
QIANFAN-89              
1 63175U 25046S   25308.21497110  .00000106  00000+0  14561-3 0  9998
2 63175  88.9763 324.0288 0014918 232.8831 127.0958 13.50974680 42205
QIANFAN-90              
1 63176U 25046T   25308.24369482  .00000012  00000+0 -10242-6 0  9994
2 63176  88.9761 323.9980 0011956 229.8887 130.1217 13.50974014 42223
QIANFAN-91              
1 66033U 25233A   25308.23552873  .00000682  00000+0  28010-3 0  9995
2 66033  88.9950  66.4637 0016403 152.9769 207.2282 14.25915142  2553
QIANFAN-92              
1 66034U 25233B   25308.23486189  .00000674  00000+0  27622-3 0  9991
2 66034  88.9949  66.4634 0015989 155.4730 204.7227 14.25996929  2556
QIANFAN-93              
1 66035U 25233C   25308.23378980  .00000684  00000+0  27984-3 0  9993
2 66035  88.9950  66.4634 0015309 154.7995 205.3949 14.26080538  2559
QIANFAN-94              
1 66036U 25233D   25308.23352940  .00000687  00000+0  28106-3 0  9992
2 66036  88.9950  66.4634 0015381 154.4624 205.7332 14.26105727  2554
QIANFAN-95              
1 66037U 25233E   25308.23321802  .00000689  00000+0  28165-3 0  9993
2 66037  88.9950  66.4633 0015340 154.8566 205.3378 14.26150917  2555
QIANFAN-96              
1 66038U 25233F   25308.23296118  .00000664  00000+0  27133-3 0  9992
2 66038  88.9950  66.4632 0015971 156.7973 203.3945 14.26154747  2551
QIANFAN-97              
1 66039U 25233G   25308.23286859  .00000668  00000+0  27279-3 0  9999
2 66039  88.9950  66.4632 0015544 156.2306 203.9609 14.26160667  2554
QIANFAN-98              
1 66040U 25233H   25308.23262918  .00000670  00000+0  27372-3 0  9998
2 66040  88.9950  66.4633 0015180 154.9639 205.2294 14.26182156  2559
QIANFAN-99              
1 66041U 25233J   25308.23250539  .00000670  00000+0  27330-3 0  9999
2 66041  88.9950  66.4631 0015320 154.0833 206.1131 14.26197613  2555
QIANFAN-100             
1 66042U 25233K   25308.23243822  .00000661  00000+0  26947-3 0  9990
2 66042  88.9950  66.4633 0015771 155.7721 204.4217 14.26213195  2552
QIANFAN-101             
1 66043U 25233L   25308.23019371  .00000443  00000+0  17734-3 0  9993
2 66043  88.9950  66.4628 0015706 154.0262 206.1724 14.26634382  2554
QIANFAN-102             
1 66044U 25233M   25308.23233472  .00000684  00000+0  27929-3 0  9998
2 66044  88.9950  66.4631 0016138 155.8772 204.3181 14.26217377  2552
QIANFAN-103             
1 66045U 25233N   25308.23205408  .00000687  00000+0  28015-3 0  9997
2 66045  88.9950  66.4633 0015529 154.6383 205.5576 14.26246598  2551
QIANFAN-104             
1 66046U 25233P   25308.23184726  .00000695  00000+0  28359-3 0  9997
2 66046  88.9950  66.4632 0015506 156.9098 203.2796 14.26267369  2552
QIANFAN-105             
1 66047U 25233Q   25308.23150689  .00000688  00000+0  28015-3 0  9990
2 66047  88.9950  66.4630 0015690 157.0302 203.1596 14.26325745  2555
QIANFAN-106             
1 66048U 25233R   25308.23152018  .00000667  00000+0  27152-3 0  9997
2 66048  88.9950  66.4631 0015573 156.7155 203.4748 14.26309077  2551
QIANFAN-107             
1 66049U 25233S   25308.23133732  .00000673  00000+0  27386-3 0  9996
2 66049  88.9950  66.4630 0016364 154.8798 205.3195 14.26337958  2558
QIANFAN-108             
1 66050U 25233T   25308.23108661  .00000660  00000+0  26861-3 0  9994
2 66050  88.9950  66.4629 0016320 156.5793 203.6148 14.26350994  2558
